NORAD_CAT_ID,OBJECT_NAME,OBJECT_TYPE,EPOCH,MEAN_MOTION,ECCENTRICITY,INCLINATION,RA_OF_ASC_NODE,ARG_OF_PERICENTER,MEAN_ANOMALY,BSTAR,MEAN_MOTION_DOT,MEAN_MOTION_DDOT,TLE_LINE0,TLE_LINE1,TLE_LINE2,SEMIMAJOR_AXIS,PERIOD,APOGEE,PERIGEE,DECAYED
53605.0,STARLINK-4693,PAYLOAD,2023-07-29 11:20:33,15.0882749,0.000167,53.2162,207.5444,80.3356,279.7824,0.00010036,1.309e-05,0.0,0 STARLINK-4693,1 53605U 22104T   23210.47260712  .00001309  00000-0  10036-3 0  9991,2 53605  53.2162 207.5444 0001670  80.3356 279.7824 15.08827490 50878,6917.919,95.438,540.939,538.628,0.0
53605.0,STARLINK-4693,PAYLOAD,2023-07-30 04:49:47,15.08833479,0.0001319,53.2161,204.2729,76.8514,283.2625,0.00017579,2.51e-05,0.0,0 STARLINK-4693,1 53605U 22104T   23211.20124488  .00002510  00000-0  17579-3 0  9996,2 53605  53.2161 204.2729 0001319  76.8514 283.2625 15.08833479 50988,6917.9,95.438,540.678,538.853,0.0
53605.0,STARLINK-4693,PAYLOAD,2023-07-31 06:15:57,15.08839746,0.0001348,53.216,199.5156,77.4467,282.6676,0.00014595,2.036e-05,0.0,0 STARLINK-4693,1 53605U 22104T   23212.26108743  .00002036  00000-0  14595-3 0  9997,2 53605  53.2160 199.5156 0001348  77.4467 282.6676 15.08839746 51144,6917.881,95.438,540.679,538.814,0.0
53605.0,STARLINK-4693,PAYLOAD,2023-08-01 15:39:04,15.08837927,0.0001345,53.2162,193.2709,83.5409,276.5736,5.5627e-05,5.97e-06,0.0,0 STARLINK-4693,1 53605U 22104T   23213.65213271  .00000597  00000-0  55627-4 0  9996,2 53605  53.2162 193.2709 0001345  83.5409 276.5736 15.08837927 51353,6917.887,95.438,540.682,538.821,0.0
53605.0,STARLINK-4693,PAYLOAD,2023-08-03 02:37:33,15.08838449,0.0001404,53.2153,186.7287,85.8489,274.2664,0.00010643,1.406e-05,0.0,0 STARLINK-4693,1 53605U 22104T   23215.10941272  .00001406  00000-0  10643-3 0  9995,2 53605  53.2153 186.7287 0001404  85.8489 274.2664 15.08838449 51579,6917.885,95.438,540.721,538.779,0.0
53605.0,STARLINK-4693,PAYLOAD,2023-08-04 04:03:43,15.08837138,0.0001535,53.2159,181.9719,86.8338,273.283,5.5734e-05,5.99e-06,0.0,0 STARLINK-4693,1 53605U 22104T   23216.16925640  .00000599  00000-0  55734-4 0  9996,2 53605  53.2159 181.9719 0001535  86.8338 273.2830 15.08837138 51737,6917.889,95.438,540.816,538.692,0.0
53605.0,STARLINK-4693,PAYLOAD,2023-08-06 03:45:17,15.08844727,0.0001392,53.2158,173.051,88.1833,271.9318,0.00016278,2.304e-05,0.0,0 STARLINK-4693,1 53605U 22104T   23218.15645425  .00002304  00000-0  16278-3 0  9992,2 53605  53.2158 173.0510 0001392  88.1833 271.9318 15.08844727 52035,6917.866,95.437,540.694,538.768,0.0
53605.0,STARLINK-4693,PAYLOAD,2023-08-07 02:00:42,15.08835695,0.0001415,53.2166,168.8877,104.0735,256.0414,2.6942e-05,1.41e-06,0.0,0 STARLINK-4693,1 53605U 22104T   23219.08382204  .00000141  00000-0  26942-4 0  9995,2 53605  53.2166 168.8877 0001415 104.0735 256.0414 15.08835695 52177,6917.894,95.438,540.737,538.78,0.0
53605.0,STARLINK-4693,PAYLOAD,2023-08-08 01:51:28,15.08851651,0.0001286,53.2173,164.4284,101.1452,258.9684,0.00011862,1.601e-05,0.0,0 STARLINK-4693,1 53605U 22104T   23220.07741088  .00001601  00000-0  11862-3 0  9991,2 53605  53.2173 164.4284 0001286 101.1452 258.9684 15.08851651 52326,6917.845,95.437,540.599,538.82,0.0
53605.0,STARLINK-4693,PAYLOAD,2023-08-08 06:37:36,15.08868935,0.0001717,53.2158,163.5352,108.6692,251.4487,-4.8503e-05,-1.061e-05,0.0,0 STARLINK-4693,1 53605U 22104T   23220.27612199 -.00001061  00000-0 -48503-4 0  9998,2 53605  53.2158 163.5352 0001717 108.6692 251.4487 15.08868935 52357,6917.792,95.436,540.845,538.469,0.0
53605.0,STARLINK-4693,PAYLOAD,2023-08-09 01:42:16,15.08825786,0.0001446,53.2159,159.9637,102.3814,257.734,-0.00010056,-1.887e-05,0.0,0 STARLINK-4693,1 53605U 22104T   23221.07102793 -.00001887  00000-0 -10056-3 0  9998,2 53605  53.2159 159.9637 0001446 102.3814 257.7340 15.08825786 52476,6917.924,95.438,540.789,538.789,0.0
53605.0,STARLINK-4693,PAYLOAD,2023-08-09 12:49:58,15.08831175,0.0001272,53.2161,157.8861,101.2253,258.8882,4.2273e-06,-2.21e-06,0.0,0 STARLINK-4693,1 53605U 22104T   23221.53470899 -.00000221  00000-0  42273-5 0  9992,2 53605  53.2161 157.8861 0001272 101.2253 258.8882 15.08831175 52547,6917.907,95.438,540.652,538.892,0.0
53605.0,STARLINK-4693,PAYLOAD,2023-08-10 04:43:49,15.08850519,0.0001074,53.2155,154.9114,102.4474,257.6638,0.00017179,2.448e-05,0.0,0 STARLINK-4693,1 53605U 22104T   23222.19709981  .00002448  00000-0  17179-3 0  9999,2 53605  53.2155 154.9114 0001074 102.4474 257.6638 15.08850519 52647,6917.848,95.437,540.456,538.97,0.0
53605.0,STARLINK-4693,PAYLOAD,2023-08-11 01:23:50,15.08848554,0.0001093,53.2161,151.0459,93.9536,266.1581,0.00032816,4.94e-05,0.0,0 STARLINK-4693,1 53605U 22104T   23223.05822245  .00004940  00000-0  32816-3 0  9998,2 53605  53.2161 151.0459 0001093  93.9536 266.1581 15.08848554 52770,6917.854,95.437,540.475,538.963,0.0
53605.0,STARLINK-4693,PAYLOAD,2023-08-11 18:53:05,15.08844777,0.0001996,53.2107,147.7722,88.9776,271.1444,9.4351e-05,1.214e-05,0.0,0 STARLINK-4693,1 53605U 22104T   23223.78686514  .00001214  00000-0  94351-4 0  9999,2 53605  53.2107 147.7722 0001996  88.9776 271.1444 15.08844777 52886,6917.866,95.437,541.112,538.35,0.0
53605.0,STARLINK-4693,PAYLOAD,2023-08-13 01:05:24,15.08850649,0.0001332,53.2167,142.1252,90.3998,269.7147,0.00037909,5.752e-05,0.0,0 STARLINK-4693,1 53605U 22104T   23225.04542184  .00005752  00000-0  37909-3 0  9990,2 53605  53.2167 142.1252 0001332  90.3998 269.7147 15.08850649 53076,6917.848,95.437,540.634,538.791,0.0
53605.0,STARLINK-4693,PAYLOAD,2023-08-14 00:56:11,15.08840776,0.0001284,53.2164,137.6647,91.0173,269.0966,0.00014683,2.05e-05,0.0,0 STARLINK-4693,1 53605U 22104T   23226.03902619  .00002050  00000-0  14683-3 0  9995,2 53605  53.2164 137.6647 0001284  91.0173 269.0966 15.08840776 53228,6917.878,95.438,540.631,538.855,0.0
53605.0,STARLINK-4693,PAYLOAD,2023-08-15 18:16:13,15.08839111,0.0001334,53.2146,129.934,94.6333,265.4811,0.0001219,1.653e-05,0.0,0 STARLINK-4693,1 53605U 22104T   23227.76126855  .00001653  00000-0  12190-3 0  9995,2 53605  53.2146 129.9340 0001334  94.6333 265.4811 15.08839111 53483,6917.883,95.438,540.671,538.825,0.0
53605.0,STARLINK-4693,PAYLOAD,2023-08-17 02:03:56,15.08842987,0.0001516,53.2168,123.9868,89.3403,270.7763,0.00019494,2.816e-05,0.0,0 STARLINK-4693,1 53605U 22104T   23229.08606792  .00002816  00000-0  19494-3 0  9991,2 53605  53.2168 123.9868 0001516  89.3403 270.7763 15.08842987 53689,6917.871,95.437,540.785,538.688,0.0
53605.0,STARLINK-4693,PAYLOAD,2023-08-18 19:23:58,15.08837649,0.0001545,53.2164,116.2548,89.0796,271.0373,-6.3884e-05,-1.305e-05,0.0,0 STARLINK-4693,1 53605U 22104T   23230.80831180 -.00001305  00000-0 -63884-4 0  9991,2 53605  53.2164 116.2548 0001545  89.0796 271.0373 15.08837649 53948,6917.888,95.438,540.821,538.684,0.0
53605.0,STARLINK-4693,PAYLOAD,2023-08-20 01:36:17,15.08841556,0.0001393,53.215,110.6052,82.4377,277.6773,0.00014893,2.083e-05,0.0,0 STARLINK-4693,1 53605U 22104T   23232.06687499  .00002083  00000-0  14893-3 0  9990,2 53605  53.2150 110.6052 0001393  82.4377 277.6773 15.08841556 54134,6917.876,95.437,540.704,538.777,0.0
53605.0,STARLINK-4693,PAYLOAD,2023-08-21 01:27:04,15.08858012,0.0001245,53.2154,106.1435,87.7423,272.3712,0.00044586,6.819e-05,0.0,0 STARLINK-4693,1 53605U 22104T   23233.06046768  .00006819  00000-0  44586-3 0  9992,2 53605  53.2154 106.1435 0001245  87.7423 272.3712 15.08858012 54285,6917.825,95.436,540.552,538.829,0.0
53605.0,STARLINK-4693,PAYLOAD,2023-08-21 20:31:42,15.08842649,0.0001345,53.2157,102.5754,89.6352,270.4794,9.9112e-05,1.29e-05,0.0,0 STARLINK-4693,1 53605U 22104T   23233.85535367  .00001290  00000-0  99112-4 0  9991,2 53605  53.2157 102.5754 0001345  89.6352 270.4794 15.08842649 54407,6917.872,95.437,540.668,538.807,0.0
53605.0,STARLINK-4693,PAYLOAD,2023-08-24 00:59:26,15.08844994,0.0001304,53.2168,92.7616,93.9787,266.1354,0.00018604,2.675e-05,0.0,0 STARLINK-4693,1 53605U 22104T   23236.04127333  .00002675  00000-0  18604-3 0  9999,2 53605  53.2168  92.7616 0001304  93.9787 266.1354 15.08844994 55423,6917.865,95.437,540.632,538.828,0.0
53605.0,STARLINK-4693,PAYLOAD,2023-08-25 18:19:28,15.08836362,0.0001281,53.2171,85.0306,97.0008,263.113,2.9948e-05,1.89e-06,0.0,0 STARLINK-4693,1 53605U 22104T   23237.76351895  .00000189  00000-0  29948-4 0  9993,2 53605  53.2171  85.0306 0001281  97.0008 263.1130 15.08836362 54993,6917.892,95.438,540.643,538.87,0.0
53605.0,STARLINK-4693,PAYLOAD,2023-08-25 19:54:51,15.08840155,0.0001325,53.2172,84.7332,95.6519,264.4625,7.9121e-05,9.72e-06,0.0,0 STARLINK-4693,1 53605U 22104T   23237.82975865  .00000972  00000-0  79121-4 0  9997,2 53605  53.2172  84.7332 0001325  95.6519 264.4625 15.08840155 55695,6917.88,95.438,540.662,538.828,0.0
53605.0,STARLINK-4693,PAYLOAD,2023-08-26 13:24:06,15.08835978,0.0001322,53.2166,81.4627,85.088,275.0263,7.5334e-05,9.11e-06,0.0,0 STARLINK-4693,1 53605U 22104T   23238.55840375  .00000911  00000-0  75334-4 0  9990,2 53605  53.2166  81.4627 0001322  85.0880 275.0263 15.08835978 55806,6917.893,95.438,540.672,538.843,0.0
53605.0,STARLINK-4693,PAYLOAD,2023-08-26 19:45:38,15.08840506,0.0001364,53.2172,80.2744,80.907,279.2076,8.7493e-05,1.105e-05,0.0,0 STARLINK-4693,1 53605U 22104T   23238.82336396  .00001105  00000-0  87493-4 0  9998,2 53605  53.2172  80.2744 0001364  80.9070 279.2076 15.08840506 55846,6917.879,95.438,540.687,538.8,0.0
53605.0,STARLINK-4693,PAYLOAD,2023-08-27 19:36:25,15.08846778,0.0001341,53.2173,75.8136,82.194,277.9204,0.00011232,1.5e-05,0.0,0 STARLINK-4693,1 53605U 22104T   23239.81695784  .00001500  00000-0  11232-3 0  9993,2 53605  53.2173  75.8136 0001341  82.1940 277.9204 15.08846778 55998,6917.86,95.437,540.652,538.797,0.0
53605.0,STARLINK-4693,PAYLOAD,2023-08-28 06:44:07,15.08845542,0.0001281,53.2171,73.7311,85.2127,274.9012,9.5169e-05,1.227e-05,0.0,0 STARLINK-4693,1 53605U 22104T   23240.28063740  .00001227  00000-0  95169-4 0  9995,2 53605  53.2171  73.7311 0001281  85.2127 274.9012 15.08845542 55376,6917.863,95.437,540.615,538.842,0.0
